{
  "norad_id": 67499,
  "name": "STARLINK-36558",
  "history": [
    {
      "epoch": "2026-03-28T17:38:29.710176Z",
      "apogee_km": 483.91999551384924,
      "perigee_km": 482.06749021327687,
      "latitude_deg": -2.710363582127659e-05,
      "longitude_deg": 116.15722863580442,
      "height_km": 482.64205832600436,
      "semi_major_axis_km": 6861.130742863563,
      "eccentricity": 0.000135,
      "inclination_deg": 43.0013,
      "raan_deg": 206.9323,
      "arg_perigee_deg": 277.9743,
      "mean_anomaly_deg": 82.0955,
      "mean_motion_rev_day": 15.27598486
    }
  ]
}